NORAD_CAT_ID,OBJECT_NAME,OBJECT_TYPE,EPOCH,MEAN_MOTION,ECCENTRICITY,INCLINATION,RA_OF_ASC_NODE,ARG_OF_PERICENTER,MEAN_ANOMALY,BSTAR,MEAN_MOTION_DOT,MEAN_MOTION_DDOT,TLE_LINE0,TLE_LINE1,TLE_LINE2,SEMIMAJOR_AXIS,PERIOD,APOGEE,PERIGEE,DECAYED
51719.0,STARLINK-3540,PAYLOAD,2023-10-03 12:38:02,15.08853677,0.0001405,53.2165,356.3192,83.237,276.8782,0.0010989,0.00017251,0.0,0 STARLINK-3540,1 51719U 22016F   23276.52641235  .00017251  00000-0  10989-2 0  9997,2 51719  53.2165 356.3192 0001405  83.2370 276.8782 15.08853677 90402,6917.839,95.437,540.676,538.732,0.0
51719.0,STARLINK-3540,PAYLOAD,2023-10-04 04:31:53,15.08851893,0.0001369,53.2163,353.3476,81.9251,278.1897,0.00044425,6.792e-05,0.0,0 STARLINK-3540,1 51719U 22016F   23277.18881237  .00006792  00000-0  44425-3 0  9999,2 51719  53.2163 353.3476 0001369  81.9251 278.1897 15.08851893 90505,6917.844,95.437,540.656,538.762,0.0
51719.0,STARLINK-3540,PAYLOAD,2023-10-04 12:28:49,15.08860781,0.000157,53.2173,351.8584,76.2506,283.8661,0.0008532,0.00013324,0.0,0 STARLINK-3540,1 51719U 22016F   23277.52001172  .00013324  00000-0  85320-3 0  9997,2 51719  53.2173 351.8584 0001570  76.2506 283.8661 15.08860781 89497,6917.817,95.436,540.768,538.596,0.0
51719.0,STARLINK-3540,PAYLOAD,2023-10-04 17:14:58,15.08875669,0.0001473,53.2167,350.9668,83.5838,276.5322,0.0014955,0.00023616,0.0,0 STARLINK-3540,1 51719U 22016F   23277.71872715  .00023616  00000-0  14955-2 0  9997,2 51719  53.2167 350.9668 0001473  83.5838 276.5322 15.08875669 90580,6917.771,95.435,540.655,538.617,0.0
51719.0,STARLINK-3540,PAYLOAD,2023-10-04 22:01:08,15.08834969,0.0002976,53.216,350.0729,77.6781,282.4544,0.00041348,6.298e-05,0.0,0 STARLINK-3540,1 51719U 22016F   23277.91745806  .00006298  00000-0  41348-3 0  9993,2 51719  53.2160 350.0729 0002976  77.6781 282.4544 15.08834969 90616,6917.896,95.438,541.82,537.702,0.0
51719.0,STARLINK-3540,PAYLOAD,2023-10-05 13:54:59,15.08851673,0.0001706,53.2166,347.1012,75.3181,284.8,0.00080355,0.00012528,0.0,0 STARLINK-3540,1 51719U 22016F   23278.57985237  .00012528  00000-0  80355-3 0  9994,2 51719  53.2166 347.1012 0001706  75.3181 284.8000 15.08851673 89659,6917.845,95.437,540.89,538.53,0.0
51719.0,STARLINK-3540,PAYLOAD,2023-10-06 04:13:28,15.08835216,0.0001808,53.2162,344.4254,71.1643,288.9545,0.00034614,5.224e-05,0.0,0 STARLINK-3540,1 51719U 22016F   23279.17601902  .00005224  00000-0  34614-3 0  9997,2 51719  53.2162 344.4254 0001808  71.1643 288.9545 15.08835216 90806,6917.895,95.438,541.011,538.509,0.0
51719.0,STARLINK-3540,PAYLOAD,2023-10-06 12:10:23,15.08841499,0.0001607,53.2166,342.938,82.0306,278.0868,0.00038811,5.894e-05,0.0,0 STARLINK-3540,1 51719U 22016F   23279.50721827  .00005894  00000-0  38811-3 0  9999,2 51719  53.2166 342.9380 0001607  82.0306 278.0868 15.08841499 89791,6917.876,95.437,540.853,538.629,0.0
51719.0,STARLINK-3540,PAYLOAD,2023-10-06 21:42:42,15.08842461,0.0001583,53.2163,341.1537,82.5803,277.5369,0.00043849,6.698e-05,0.0,0 STARLINK-3540,1 51719U 22016F   23279.90465942  .00006698  00000-0  43849-3 0  9996,2 51719  53.2163 341.1537 0001583  82.5803 277.5369 15.08842461 89850,6917.873,95.437,540.833,538.643,0.0
51719.0,STARLINK-3540,PAYLOAD,2023-10-07 10:25:47,15.08847393,0.000168,53.2167,338.7735,93.8208,266.2976,0.00047068,7.212e-05,0.0,0 STARLINK-3540,1 51719U 22016F   23280.43457872  .00007212  00000-0  47068-3 0  9999,2 51719  53.2167 338.7735 0001680  93.8208 266.2976 15.08847393 90993,6917.858,95.437,540.885,538.561,0.0
51719.0,STARLINK-3540,PAYLOAD,2023-10-08 10:16:34,15.0884509,0.0001661,53.2172,334.314,81.3583,278.7597,0.00022021,3.219e-05,0.0,0 STARLINK-3540,1 51719U 22016F   23281.42818057  .00003219  00000-0  22021-3 0  9990,2 51719  53.2172 334.3140 0001661  81.3583 278.7597 15.08845090 91145,6917.865,95.437,540.879,538.581,0.0
51719.0,STARLINK-3540,PAYLOAD,2023-10-08 13:27:20,15.08850857,0.0001687,53.2167,333.7183,79.4077,280.7105,0.00033252,5.01e-05,0.0,0 STARLINK-3540,1 51719U 22016F   23281.56065931  .00005010  00000-0  33252-3 0  9999,2 51719  53.2167 333.7183 0001687  79.4077 280.7105 15.08850857 90103,6917.847,95.437,540.879,538.545,0.0
51719.0,STARLINK-3540,PAYLOAD,2023-10-08 15:02:43,15.08855276,0.0001697,53.2174,333.4221,78.6076,281.5107,0.00042769,6.528e-05,0.0,0 STARLINK-3540,1 51719U 22016F   23281.62689748  .00006528  00000-0  42769-3 0  9992,2 51719  53.2174 333.4221 0001697  78.6076 281.5107 15.08855276 90114,6917.834,95.437,540.873,538.525,0.0
51719.0,STARLINK-3540,PAYLOAD,2023-10-09 08:31:58,15.08848502,0.0001784,53.2165,330.1508,84.057,276.0626,0.00035397,5.351e-05,0.0,0 STARLINK-3540,1 51719U 22016F   23282.35553966  .00005351  00000-0  35397-3 0  9997,2 51719  53.2165 330.1508 0001784  84.0570 276.0626 15.08848502 91281,6917.854,95.437,540.954,538.485,0.0
51719.0,STARLINK-3540,PAYLOAD,2023-10-09 10:07:21,15.08851506,0.0001806,53.2183,329.8575,86.3353,273.7846,0.00068521,0.00010637,0.0,0 STARLINK-3540,1 51719U 22016F   23282.42177913  .00010637  00000-0  68521-3 0  9997,2 51719  53.2183 329.8575 0001806  86.3353 273.7846 15.08851506 90239,6917.845,95.437,540.96,538.461,0.0
51719.0,STARLINK-3540,PAYLOAD,2023-10-09 14:53:30,15.08866548,0.0001798,53.2176,328.961,81.2229,278.8967,0.0014121,0.00022273,0.0,0 STARLINK-3540,1 51719U 22016F   23282.62049686  .00022273  00000-0  14121-2 0  9999,2 51719  53.2176 328.9610 0001798  81.2229 278.8967 15.08866548 91320,6917.799,95.436,540.908,538.42,0.0
51719.0,STARLINK-3540,PAYLOAD,2023-10-10 09:58:08,15.08859149,0.0001676,53.2171,325.3939,91.2861,268.8324,0.002031,0.000322,0.0,0 STARLINK-3540,1 51719U 22016F   23283.41537855  .00032200  00000-0  20310-2 0  9995,2 51719  53.2171 325.3939 0001676  91.2861 268.8324 15.08859149 91446,6917.822,95.436,540.846,538.527,0.0
51719.0,STARLINK-3540,PAYLOAD,2023-10-10 19:30:27,15.08833847,0.0002792,53.2173,323.6092,76.3412,283.7891,0.00023284,3.419e-05,0.0,0 STARLINK-3540,1 51719U 22016F   23283.81282395  .00003419  00000-0  23284-3 0  9999,2 51719  53.2173 323.6092 0002792  76.3412 283.7891 15.08833847 91504,6917.899,95.438,541.696,537.833,0.0
51719.0,STARLINK-3540,PAYLOAD,2023-10-11 09:48:56,15.08830387,0.0001946,53.2181,320.9346,84.0084,276.113,0.0004992,7.664e-05,0.0,0 STARLINK-3540,1 51719U 22016F   23284.40898661  .00007664  00000-0  49920-3 0  9995,2 51719  53.2181 320.9346 0001946  84.0084 276.1130 15.08830387 90536,6917.91,95.438,541.121,538.429,0.0
51719.0,STARLINK-3540,PAYLOAD,2023-10-12 03:18:11,15.08842408,0.0001864,53.2174,317.6633,82.6828,277.4376,0.00077976,0.00012144,0.0,0 STARLINK-3540,1 51719U 22016F   23285.13762945  .00012144  00000-0  77976-3 0  9992,2 51719  53.2174 317.6633 0001864  82.6828 277.4376 15.08842408 91702,6917.873,95.437,541.028,538.449,0.0
51719.0,STARLINK-3540,PAYLOAD,2023-10-12 09:39:43,15.08852115,0.0001879,53.217,316.474,84.1459,275.9748,0.00088215,0.00013784,0.0,0 STARLINK-3540,1 51719U 22016F   23285.40258713  .00013784  00000-0  88215-3 0  9994,2 51719  53.2170 316.4740 0001879  84.1459 275.9748 15.08852115 90685,6917.843,95.437,541.008,538.408,0.0
51719.0,STARLINK-3540,PAYLOAD,2023-10-12 19:12:02,15.0884638,0.0002193,53.2166,314.6879,89.0458,271.0785,0.00046109,7.059e-05,0.0,0 STARLINK-3540,1 51719U 22016F   23285.80002731  .00007059  00000-0  46109-3 0  9999,2 51719  53.2166 314.6879 0002193  89.0458 271.0785 15.08846380 90748,6917.861,95.437,541.243,538.209,0.0
51719.0,STARLINK-3540,PAYLOAD,2023-10-13 01:33:34,15.08845322,0.0001981,53.2169,313.5008,88.9216,271.2003,0.00028832,4.304e-05,0.0,0 STARLINK-3540,1 51719U 22016F   23286.06498737  .00004304  00000-0  28832-3 0  9996,2 51719  53.2169 313.5008 0001981  88.9216 271.2003 15.08845322 91849,6917.864,95.437,541.1,538.359,0.0
51719.0,STARLINK-3540,PAYLOAD,2023-10-13 09:30:30,15.08847436,0.0002003,53.2168,312.0132,88.5278,271.5944,0.00028047,4.179e-05,0.0,0 STARLINK-3540,1 51719U 22016F   23286.39618615  .00004179  00000-0  28047-3 0  9999,2 51719  53.2168 312.0132 0002003  88.5278 271.5944 15.08847436 90833,6917.858,95.437,541.108,538.337,0.0
51719.0,STARLINK-3540,PAYLOAD,2023-10-13 19:02:49,15.08846756,0.0002053,53.2161,310.2289,81.9668,278.1557,0.00029783,4.456e-05,0.0,0 STARLINK-3540,1 51719U 22016F   23286.79362688  .00004456  00000-0  29783-3 0  9995,2 51719  53.2161 310.2289 0002053  81.9668 278.1557 15.08846756 90897,6917.86,95.437,541.145,538.305,0.0
51719.0,STARLINK-3540,PAYLOAD,2023-10-14 01:24:21,15.08845139,0.0002149,53.2165,309.0397,81.9109,278.2127,0.00023627,3.475e-05,0.0,0 STARLINK-3540,1 51719U 22016F   23287.05858737  .00003475  00000-0  23627-3 0  9991,2 51719  53.2165 309.0397 0002149  81.9109 278.2127 15.08845139 91993,6917.865,95.437,541.216,538.243,0.0
51719.0,STARLINK-3540,PAYLOAD,2023-10-14 07:45:54,15.08848759,0.0001912,53.2164,307.8488,87.5249,272.5962,0.00022186,3.245e-05,0.0,0 STARLINK-3540,1 51719U 22016F   23287.32354501  .00003245  00000-0  22186-3 0  9995,2 51719  53.2164 307.8488 0001912  87.5249 272.5962 15.08848759 90975,6917.854,95.437,541.041,538.396,0.0
51719.0,STARLINK-3540,PAYLOAD,2023-10-14 18:53:36,15.08842762,0.0001687,53.2145,305.7666,92.3098,267.8087,0.00013046,1.789e-05,0.0,0 STARLINK-3540,1 51719U 22016F   23287.78722618  .00001789  00000-0  13046-3 0  9999,2 51719  53.2145 305.7666 0001687  92.3098 267.8087 15.08842762 91046,6917.872,95.437,540.904,538.57,0.0
51719.0,STARLINK-3540,PAYLOAD,2023-10-15 01:15:09,15.088256,0.0001756,53.2161,304.5781,90.4978,269.6215,-0.00015454,-2.746e-05,0.0,0 STARLINK-3540,1 51719U 22016F   23288.05219416 -.00002746  00000-0 -15454-3 0  9998,2 51719  53.2161 304.5781 0001756  90.4978 269.6215 15.08825600 92149,6917.924,95.438,541.004,538.575,0.0
51719.0,STARLINK-3540,PAYLOAD,2023-10-15 10:47:28,15.08833528,0.0001798,53.2157,302.7924,97.1162,263.0034,1.6159e-05,-3.1e-07,0.0,0 STARLINK-3540,1 51719U 22016F   23288.44963365 -.00000031  00000-0  16159-4 0  9998,2 51719  53.2157 302.7924 0001798  97.1162 263.0034 15.08833528 91142,6917.9,95.438,541.009,538.521,0.0
